[{"OBJECT_NAME":"SL-8 R/B","OBJECT_ID":"1979-089B","EPOCH":"2026-04-12T12:33:32.492736","MEAN_MOTION":14.42373955,"ECCENTRICITY":0.0016186,"INCLINATION":74.0711,"RA_OF_ASC_NODE":28.4119,"ARG_OF_PERICENTER":195.7607,"MEAN_ANOMALY":164.3048,"EPHEMERIS_TYPE":0,"CLASSIFICATION_TYPE":"U","NORAD_CAT_ID":11574,"ELEMENT_SET_NO":999,"REV_AT_EPOCH":44098,"BSTAR":6.2009e-5,"MEAN_MOTION_DOT":1.79e-6,"MEAN_MOTION_DDOT":0},{"OBJECT_NAME":"SL-14 R/B","OBJECT_ID":"1980-005B","EPOCH":"2026-04-12T18:05:43.617984","MEAN_MOTION":14.90971351,"ECCENTRICITY":0.0016902,"INCLINATION":82.5112,"RA_OF_ASC_NODE":274.9123,"ARG_OF_PERICENTER":53.3517,"MEAN_ANOMALY":306.9253,"EPHEMERIS_TYPE":0,"CLASSIFICATION_TYPE":"U","NORAD_CAT_ID":11672,"ELEMENT_SET_NO":999,"REV_AT_EPOCH":48156,"BSTAR":3.8336e-5,"MEAN_MOTION_DOT":4.05e-6,"MEAN_MOTION_DDOT":0},{"OBJECT_NAME":"SL-8 R/B","OBJECT_ID":"1981-003B","EPOCH":"2026-04-12T19:47:34.232928","MEAN_MOTION":15.12525529,"ECCENTRICITY":0.0257821,"INCLINATION":82.937,"RA_OF_ASC_NODE":258.4203,"ARG_OF_PERICENTER":60.0726,"MEAN_ANOMALY":302.584,"EPHEMERIS_TYPE":0,"CLASSIFICATION_TYPE":"U","NORAD_CAT_ID":12139,"ELEMENT_SET_NO":999,"REV_AT_EPOCH":31983,"BSTAR":0.00030979,"MEAN_MOTION_DOT":0.00012477,"MEAN_MOTION_DDOT":0},{"OBJECT_NAME":"SL-3 R/B","OBJECT_ID":"1981-046B","EPOCH":"2026-04-12T20:13:54.251328","MEAN_MOTION":15.42872163,"ECCENTRICITY":0.0018049,"INCLINATION":81.2295,"RA_OF_ASC_NODE":248.6988,"ARG_OF_PERICENTER":259.898,"MEAN_ANOMALY":100.0228,"EPHEMERIS_TYPE":0,"CLASSIFICATION_TYPE":"U","NORAD_CAT_ID":12465,"ELEMENT_SET_NO":999,"REV_AT_EPOCH":44369,"BSTAR":0.00018377,"MEAN_MOTION_DOT":8.141e-5,"MEAN_MOTION_DDOT":0},{"OBJECT_NAME":"SL-3 R/B","OBJECT_ID":"1981-103B","EPOCH":"2026-04-12T18:30:15.077376","MEAN_MOTION":15.21776231,"ECCENTRICITY":0.0013598,"INCLINATION":81.1603,"RA_OF_ASC_NODE":173.4491,"ARG_OF_PERICENTER":167.3168,"MEAN_ANOMALY":192.8409,"EPHEMERIS_TYPE":0,"CLASSIFICATION_TYPE":"U","NORAD_CAT_ID":12904,"ELEMENT_SET_NO":999,"REV_AT_EPOCH":97841,"BSTAR":0.00011897,"MEAN_MOTION_DOT":2.73e-5,"MEAN_MOTION_DDOT":0},{"OBJECT_NAME":"SL-3 R/B","OBJECT_ID":"1982-013B","EPOCH":"2026-04-12T19:57:32.832000","MEAN_MOTION":15.22318581,"ECCENTRICITY":0.0023402,"INCLINATION":81.1715,"RA_OF_ASC_NODE":120.7414,"ARG_OF_PERICENTER":66.6293,"MEAN_ANOMALY":293.7397,"EPHEMERIS_TYPE":0,"CLASSIFICATION_TYPE":"U","NORAD_CAT_ID":13068,"ELEMENT_SET_NO":999,"REV_AT_EPOCH":40954,"BSTAR":0.00010043,"MEAN_MOTION_DOT":2.358e-5,"MEAN_MOTION_DDOT":0},{"OBJECT_NAME":"SL-3 R/B","OBJECT_ID":"1982-039B","EPOCH":"2026-04-12T18:42:29.765088","MEAN_MOTION":15.10272719,"ECCENTRICITY":0.002789,"INCLINATION":81.1533,"RA_OF_ASC_NODE":176.647,"ARG_OF_PERICENTER":209.5435,"MEAN_ANOMALY":150.4216,"EPHEMERIS_TYPE":0,"CLASSIFICATION_TYPE":"U","NORAD_CAT_ID":13154,"ELEMENT_SET_NO":999,"REV_AT_EPOCH":38678,"BSTAR":6.9807e-5,"MEAN_MOTION_DOT":1.176e-5,"MEAN_MOTION_DDOT":0},{"OBJECT_NAME":"SL-3 R/B","OBJECT_ID":"1982-079B","EPOCH":"2026-04-12T20:25:48.570240","MEAN_MOTION":15.25230966,"ECCENTRICITY":0.0025119,"INCLINATION":81.1463,"RA_OF_ASC_NODE":152.7332,"ARG_OF_PERICENTER":52.9765,"MEAN_ANOMALY":307.3761,"EPHEMERIS_TYPE":0,"CLASSIFICATION_TYPE":"U","NORAD_CAT_ID":13403,"ELEMENT_SET_NO":999,"REV_AT_EPOCH":38290,"BSTAR":0.00011338,"MEAN_MOTION_DOT":2.9e-5,"MEAN_MOTION_DDOT":0},{"OBJECT_NAME":"SL-14 R/B","OBJECT_ID":"1982-092B","EPOCH":"2026-04-12T18:55:14.482848","MEAN_MOTION":14.86697504,"ECCENTRICITY":0.0020185,"INCLINATION":82.5645,"RA_OF_ASC_NODE":109.4952,"ARG_OF_PERICENTER":183.5408,"MEAN_ANOMALY":349.3435,"EPHEMERIS_TYPE":0,"CLASSIFICATION_TYPE":"U","NORAD_CAT_ID":13553,"ELEMENT_SET_NO":999,"REV_AT_EPOCH":33399,"BSTAR":3.1539e-5,"MEAN_MOTION_DOT":3.06e-6,"MEAN_MOTION_DDOT":0},{"OBJECT_NAME":"SL-3 R/B","OBJECT_ID":"1983-010B","EPOCH":"2026-04-12T20:23:19.893120","MEAN_MOTION":15.47481448,"ECCENTRICITY":0.0015047,"INCLINATION":81.1027,"RA_OF_ASC_NODE":320.3302,"ARG_OF_PERICENTER":289.6678,"MEAN_ANOMALY":70.2943,"EPHEMERIS_TYPE":0,"CLASSIFICATION_TYPE":"U","NORAD_CAT_ID":13819,"ELEMENT_SET_NO":999,"REV_AT_EPOCH":36322,"BSTAR":0.00016792,"MEAN_MOTION_DOT":8.686e-5,"MEAN_MOTION_DDOT":0},{"OBJECT_NAME":"SL-3 R/B","OBJECT_ID":"1983-075B","EPOCH":"2026-04-12T19:49:26.632416","MEAN_MOTION":15.39249995,"ECCENTRICITY":0.0023229,"INCLINATION":97.6135,"RA_OF_ASC_NODE":108.7182,"ARG_OF_PERICENTER":106.6183,"MEAN_ANOMALY":253.7615,"EPHEMERIS_TYPE":0,"CLASSIFICATION_TYPE":"U","NORAD_CAT_ID":14208,"ELEMENT_SET_NO":999,"REV_AT_EPOCH":33540,"BSTAR":0.00018594,"MEAN_MOTION_DOT":7.215e-5,"MEAN_MOTION_DDOT":0},{"OBJECT_NAME":"COSMOS 1536","OBJECT_ID":"1984-013A","EPOCH":"2026-04-12T20:39:56.223360","MEAN_MOTION":15.24318038,"ECCENTRICITY":0.0015131,"INCLINATION":82.5428,"RA_OF_ASC_NODE":73.8608,"ARG_OF_PERICENTER":154.9139,"MEAN_ANOMALY":205.2837,"EPHEMERIS_TYPE":0,"CLASSIFICATION_TYPE":"U","NORAD_CAT_ID":14699,"ELEMENT_SET_NO":999,"REV_AT_EPOCH":27782,"BSTAR":0.00020112,"MEAN_MOTION_DOT":4.964e-5,"MEAN_MOTION_DDOT":0},{"OBJECT_NAME":"SL-14 R/B","OBJECT_ID":"1984-027B","EPOCH":"2026-04-12T16:45:19.911168","MEAN_MOTION":14.86014447,"ECCENTRICITY":0.0017065,"INCLINATION":82.5439,"RA_OF_ASC_NODE":213.1191,"ARG_OF_PERICENTER":216.9336,"MEAN_ANOMALY":143.0707,"EPHEMERIS_TYPE":0,"CLASSIFICATION_TYPE":"U","NORAD_CAT_ID":14820,"ELEMENT_SET_NO":999,"REV_AT_EPOCH":25268,"BSTAR":3.5409e-5,"MEAN_MOTION_DOT":3.34e-6,"MEAN_MOTION_DDOT":0},{"OBJECT_NAME":"SL-8 R/B","OBJECT_ID":"1985-006B","EPOCH":"2026-04-12T14:53:45.390336","MEAN_MOTION":14.3780693,"ECCENTRICITY":0.0017276,"INCLINATION":74.0466,"RA_OF_ASC_NODE":198.7124,"ARG_OF_PERICENTER":105.7211,"MEAN_ANOMALY":357.6472,"EPHEMERIS_TYPE":0,"CLASSIFICATION_TYPE":"U","NORAD_CAT_ID":15483,"ELEMENT_SET_NO":999,"REV_AT_EPOCH":15890,"BSTAR":5.4186e-5,"MEAN_MOTION_DOT":1.37e-6,"MEAN_MOTION_DDOT":0},{"OBJECT_NAME":"SL-12 R/B(2)","OBJECT_ID":"1985-042D","EPOCH":"2026-04-12T17:40:53.992992","MEAN_MOTION":14.21992486,"ECCENTRICITY":0.0032988,"INCLINATION":71.1105,"RA_OF_ASC_NODE":15.7967,"ARG_OF_PERICENTER":71.585,"MEAN_ANOMALY":325.6826,"EPHEMERIS_TYPE":0,"CLASSIFICATION_TYPE":"U","NORAD_CAT_ID":15772,"ELEMENT_SET_NO":999,"REV_AT_EPOCH":11923,"BSTAR":6.1604e-5,"MEAN_MOTION_DOT":8.9e-7,"MEAN_MOTION_DDOT":0},{"OBJECT_NAME":"SL-14 R/B","OBJECT_ID":"1985-069B","EPOCH":"2026-04-12T09:40:43.112064","MEAN_MOTION":14.86469645,"ECCENTRICITY":0.0020364,"INCLINATION":82.5296,"RA_OF_ASC_NODE":353.2409,"ARG_OF_PERICENTER":81.425,"MEAN_ANOMALY":278.9273,"EPHEMERIS_TYPE":0,"CLASSIFICATION_TYPE":"U","NORAD_CAT_ID":15945,"ELEMENT_SET_NO":999,"REV_AT_EPOCH":17784,"BSTAR":3.1349e-5,"MEAN_MOTION_DOT":3.03e-6,"MEAN_MOTION_DDOT":0},{"OBJECT_NAME":"SL-16 R/B","OBJECT_ID":"1985-097B","EPOCH":"2026-04-12T20:56:47.970816","MEAN_MOTION":14.16604304,"ECCENTRICITY":0.0008749,"INCLINATION":71.0022,"RA_OF_ASC_NODE":68.5841,"ARG_OF_PERICENTER":217.8238,"MEAN_ANOMALY":163.1651,"EPHEMERIS_TYPE":0,"CLASSIFICATION_TYPE":"U","NORAD_CAT_ID":16182,"ELEMENT_SET_NO":999,"REV_AT_EPOCH":9207,"BSTAR":0.000152,"MEAN_MOTION_DOT":2.56e-6,"MEAN_MOTION_DDOT":0}]
