SL-8 R/B                
1 11574U 79089B   26102.52329274  .00000179  00000+0  62009-4 0  9993
2 11574  74.0711  28.4119 0016186 195.7607 164.3048 14.42373955440986
SL-14 R/B               
1 11672U 80005B   26102.75397706  .00000405  00000+0  38336-4 0  9990
2 11672  82.5112 274.9123 0016902  53.3517 306.9253 14.90971351481560
SL-8 R/B                
1 12139U 81003B   26102.82470177  .00012477  00000+0  30979-3 0  9996
2 12139  82.9370 258.4203 0257821  60.0726 302.5840 15.12525529319830
SL-3 R/B                
1 12465U 81046B   26102.84298902  .00008141  00000+0  18377-3 0  9992
2 12465  81.2295 248.6988 0018049 259.8980 100.0228 15.42872163443693
SL-3 R/B                
1 12904U 81103B   26102.77100784  .00002730  00000+0  11897-3 0  9994
2 12904  81.1603 173.4491 0013598 167.3168 192.8409 15.21776231978411
SL-3 R/B                
1 13068U 82013B   26102.83163000  .00002358  00000+0  10043-3 0  9992
2 13068  81.1715 120.7414 0023402  66.6293 293.7397 15.22318581409543
SL-3 R/B                
1 13154U 82039B   26102.77951117  .00001176  00000+0  69807-4 0  9993
2 13154  81.1533 176.6470 0027890 209.5435 150.4216 15.10272719386788
SL-3 R/B                
1 13403U 82079B   26102.85125660  .00002900  00000+0  11338-3 0  9990
2 13403  81.1463 152.7332 0025119  52.9765 307.3761 15.25230966382909
SL-14 R/B               
1 13553U 82092B   26102.78836207  .00000306  00000+0  31539-4 0  9993
2 13553  82.5645 109.4952 0020185 183.5408 349.3435 14.86697504333992
SL-3 R/B                
1 13819U 83010B   26102.84953580  .00008686  00000+0  16792-3 0  9992
2 13819  81.1027 320.3302 0015047 289.6678  70.2943 15.47481448363226
SL-3 R/B                
1 14208U 83075B   26102.82600269  .00007215  00000+0  18594-3 0  9996
2 14208  97.6135 108.7182 0023229 106.6183 253.7615 15.39249995335408
COSMOS 1536             
1 14699U 84013A   26102.86106740  .00004964  00000+0  20112-3 0  9999
2 14699  82.5428  73.8608 0015131 154.9139 205.2837 15.24318038277823
SL-14 R/B               
1 14820U 84027B   26102.69814712  .00000334  00000+0  35409-4 0  9999
2 14820  82.5439 213.1191 0017065 216.9336 143.0707 14.86014447252689
SL-8 R/B                
1 15483U 85006B   26102.62066424  .00000137  00000+0  54186-4 0  9999
2 15483  74.0466 198.7124 0017276 105.7211 357.6472 14.37806930158900
SL-12 R/B(2)            
1 15772U 85042D   26102.73673603  .00000089  00000+0  61604-4 0  9994
2 15772  71.1105  15.7967 0032988  71.5850 325.6826 14.21992486119234
SL-14 R/B               
1 15945U 85069B   26102.40327676  .00000303  00000+0  31349-4 0  9997
2 15945  82.5296 353.2409 0020364  81.4250 278.9273 14.86469645177847
SL-16 R/B               
1 16182U 85097B   26102.87277744  .00000256  00000+0  15200-3 0  9997
2 16182  71.0022  68.5841 0008749 217.8238 163.1651 14.16604304 92073
